0 COSMOS 886 DEB
1 19475U 76126CD  13281.26538138  .00000390  00000-0  25310-3 0  8624
2 19475 065.8333 239.5620 0850013 119.8921 248.9308 13.02364315103399
0 COSMOS 886 DEB
1 19475U 76126CD  13282.72441348  .00000476  00000-0  29953-3 0  8635
2 19475 065.8333 236.3401 0849961 119.2412 249.6316 13.02369172103584
0 COSMOS 886 DEB
1 19475U 76126CD  13283.72270733  .00000888  00000-0  48063-3 0  8645
2 19475 065.8342 234.1403 0850371 118.8469 250.1058 13.02365817103713
0 COSMOS 886 DEB
1 19475U 76126CD  13286.25678877  .00001279  00000-0  73593-3 0  8659
2 19475 065.8337 228.5395 0849909 117.6636 251.3257 13.02369158104045
0 COSMOS 886 DEB
1 19475U 76126CD  13287.63902278  .00001613  00000-0  91731-3 0  8664
2 19475 065.8339 225.4873 0849864 117.0496 251.9829 13.02372964104222
0 COSMOS 886 DEB
1 19475U 76126CD  13289.17483471  .00001491  00000-0  85081-3 0  8670
2 19475 065.8340 222.0961 0849808 116.3643 252.7148 13.02380892104423
0 COSMOS 886 DEB
1 19475U 76126CD  13291.17137814  .00001149  00000-0  66551-3 0  8682
2 19475 065.8339 217.6875 0849738 115.4743 253.6635 13.02389877104689
0 COSMOS 886 DEB
1 19475U 76126CD  13292.86074892  .00001243  00000-0  71615-3 0  8698
2 19475 065.8337 213.9571 0849712 114.7209 254.4651 13.02394098104903
0 COSMOS 886 DEB
1 19475U 76126CD  13294.16616650  .00001367  00000-0  78381-3 0  8703
2 19475 065.8335 211.0745 0849726 114.1363 255.0863 13.02396729105077
0 COSMOS 886 DEB
1 19475U 76126CD  13295.24121285  .00001708  00000-0  96852-3 0  8711
2 19475 065.8334 208.7004 0849718 113.6569 255.5947 13.02397608105211
